<?xml version="1.0" encoding="UTF-8"?>
<gpx version="1.1" creator="VectorRun-seed">
  <trk><name>Anna</name><trkseg>
      <trkpt lat="59.331197" lon="18.061501"><ele>40.0</ele><time>2024-06-15T10:00:45Z</time></trkpt>
      <trkpt lat="59.331247" lon="18.061605"><ele>39.9</ele><time>2024-06-15T10:00:47Z</time></trkpt>
      <trkpt lat="59.331301" lon="18.061706"><ele>39.8</ele><time>2024-06-15T10:00:49Z</time></trkpt>
      <trkpt lat="59.331348" lon="18.061806"><ele>40.0</ele><time>2024-06-15T10:00:51Z</time></trkpt>
      <trkpt lat="59.331399" lon="18.061910"><ele>40.1</ele><time>2024-06-15T10:00:54Z</time></trkpt>
      <trkpt lat="59.331446" lon="18.062017"><ele>40.2</ele><time>2024-06-15T10:00:56Z</time></trkpt>
      <trkpt lat="59.331498" lon="18.062118"><ele>40.3</ele><time>2024-06-15T10:00:58Z</time></trkpt>
      <trkpt lat="59.331546" lon="18.062219"><ele>40.4</ele><time>2024-06-15T10:01:01Z</time></trkpt>
      <trkpt lat="59.331598" lon="18.062321"><ele>40.5</ele><time>2024-06-15T10:01:03Z</time></trkpt>
      <trkpt lat="59.331650" lon="18.062429"><ele>40.3</ele><time>2024-06-15T10:01:05Z</time></trkpt>
      <trkpt lat="59.331698" lon="18.062531"><ele>40.4</ele><time>2024-06-15T10:01:08Z</time></trkpt>
      <trkpt lat="59.331747" lon="18.062631"><ele>40.4</ele><time>2024-06-15T10:01:10Z</time></trkpt>
      <trkpt lat="59.331804" lon="18.062735"><ele>40.3</ele><time>2024-06-15T10:01:12Z</time></trkpt>
      <trkpt lat="59.331851" lon="18.062837"><ele>40.4</ele><time>2024-06-15T10:01:15Z</time></trkpt>
      <trkpt lat="59.331899" lon="18.062944"><ele>40.4</ele><time>2024-06-15T10:01:17Z</time></trkpt>
      <trkpt lat="59.331952" lon="18.063050"><ele>40.3</ele><time>2024-06-15T10:01:19Z</time></trkpt>
      <trkpt lat="59.331997" lon="18.063153"><ele>40.4</ele><time>2024-06-15T10:01:21Z</time></trkpt>
      <trkpt lat="59.332050" lon="18.063250"><ele>40.4</ele><time>2024-06-15T10:01:24Z</time></trkpt>
      <trkpt lat="59.332096" lon="18.063353"><ele>40.5</ele><time>2024-06-15T10:01:26Z</time></trkpt>
      <trkpt lat="59.332146" lon="18.063456"><ele>40.5</ele><time>2024-06-15T10:01:28Z</time></trkpt>
      <trkpt lat="59.332203" lon="18.063559"><ele>40.6</ele><time>2024-06-15T10:01:31Z</time></trkpt>
      <trkpt lat="59.332252" lon="18.063668"><ele>40.7</ele><time>2024-06-15T10:01:33Z</time></trkpt>
      <trkpt lat="59.332297" lon="18.063765"><ele>40.7</ele><time>2024-06-15T10:01:35Z</time></trkpt>
      <trkpt lat="59.332349" lon="18.063873"><ele>40.8</ele><time>2024-06-15T10:01:38Z</time></trkpt>
      <trkpt lat="59.332399" lon="18.063978"><ele>40.8</ele><time>2024-06-15T10:01:40Z</time></trkpt>
      <trkpt lat="59.332451" lon="18.064082"><ele>40.7</ele><time>2024-06-15T10:01:42Z</time></trkpt>
      <trkpt lat="59.332502" lon="18.064181"><ele>40.7</ele><time>2024-06-15T10:01:45Z</time></trkpt>
      <trkpt lat="59.332551" lon="18.064281"><ele>40.6</ele><time>2024-06-15T10:01:47Z</time></trkpt>
      <trkpt lat="59.332603" lon="18.064384"><ele>40.7</ele><time>2024-06-15T10:01:49Z</time></trkpt>
      <trkpt lat="59.332648" lon="18.064492"><ele>40.9</ele><time>2024-06-15T10:01:51Z</time></trkpt>
      <trkpt lat="59.332702" lon="18.064595"><ele>41.0</ele><time>2024-06-15T10:01:54Z</time></trkpt>
      <trkpt lat="59.332752" lon="18.064694"><ele>41.2</ele><time>2024-06-15T10:01:56Z</time></trkpt>
      <trkpt lat="59.332799" lon="18.064800"><ele>41.1</ele><time>2024-06-15T10:01:58Z</time></trkpt>
      <trkpt lat="59.332858" lon="18.064883"><ele>41.3</ele><time>2024-06-15T10:02:01Z</time></trkpt>
      <trkpt lat="59.332919" lon="18.064968"><ele>41.2</ele><time>2024-06-15T10:02:03Z</time></trkpt>
      <trkpt lat="59.332973" lon="18.065047"><ele>41.4</ele><time>2024-06-15T10:02:05Z</time></trkpt>
      <trkpt lat="59.333035" lon="18.065129"><ele>41.2</ele><time>2024-06-15T10:02:08Z</time></trkpt>
      <trkpt lat="59.333093" lon="18.065215"><ele>41.1</ele><time>2024-06-15T10:02:10Z</time></trkpt>
      <trkpt lat="59.333151" lon="18.065298"><ele>41.0</ele><time>2024-06-15T10:02:12Z</time></trkpt>
      <trkpt lat="59.333214" lon="18.065376"><ele>41.0</ele><time>2024-06-15T10:02:14Z</time></trkpt>
      <trkpt lat="59.333269" lon="18.065461"><ele>41.1</ele><time>2024-06-15T10:02:17Z</time></trkpt>
      <trkpt lat="59.333330" lon="18.065549"><ele>41.1</ele><time>2024-06-15T10:02:19Z</time></trkpt>
      <trkpt lat="59.333389" lon="18.065628"><ele>41.1</ele><time>2024-06-15T10:02:21Z</time></trkpt>
      <trkpt lat="59.333447" lon="18.065714"><ele>41.2</ele><time>2024-06-15T10:02:24Z</time></trkpt>
      <trkpt lat="59.333501" lon="18.065794"><ele>41.4</ele><time>2024-06-15T10:02:26Z</time></trkpt>
      <trkpt lat="59.333564" lon="18.065874"><ele>41.4</ele><time>2024-06-15T10:02:28Z</time></trkpt>
      <trkpt lat="59.333622" lon="18.065958"><ele>41.6</ele><time>2024-06-15T10:02:31Z</time></trkpt>
      <trkpt lat="59.333677" lon="18.066045"><ele>41.6</ele><time>2024-06-15T10:02:33Z</time></trkpt>
      <trkpt lat="59.333734" lon="18.066123"><ele>41.8</ele><time>2024-06-15T10:02:35Z</time></trkpt>
      <trkpt lat="59.333796" lon="18.066205"><ele>41.7</ele><time>2024-06-15T10:02:37Z</time></trkpt>
      <trkpt lat="59.333853" lon="18.066288"><ele>41.7</ele><time>2024-06-15T10:02:40Z</time></trkpt>
      <trkpt lat="59.333917" lon="18.066373"><ele>41.7</ele><time>2024-06-15T10:02:42Z</time></trkpt>
      <trkpt lat="59.333969" lon="18.066458"><ele>41.9</ele><time>2024-06-15T10:02:44Z</time></trkpt>
      <trkpt lat="59.334030" lon="18.066535"><ele>41.8</ele><time>2024-06-15T10:02:47Z</time></trkpt>
      <trkpt lat="59.334090" lon="18.066621"><ele>41.8</ele><time>2024-06-15T10:02:49Z</time></trkpt>
      <trkpt lat="59.334150" lon="18.066701"><ele>41.6</ele><time>2024-06-15T10:02:51Z</time></trkpt>
      <trkpt lat="59.334210" lon="18.066783"><ele>41.8</ele><time>2024-06-15T10:02:54Z</time></trkpt>
      <trkpt lat="59.334264" lon="18.066867"><ele>42.0</ele><time>2024-06-15T10:02:56Z</time></trkpt>
      <trkpt lat="59.334324" lon="18.066948"><ele>42.1</ele><time>2024-06-15T10:02:58Z</time></trkpt>
      <trkpt lat="59.334384" lon="18.067031"><ele>42.2</ele><time>2024-06-15T10:03:00Z</time></trkpt>
      <trkpt lat="59.334438" lon="18.067117"><ele>42.2</ele><time>2024-06-15T10:03:03Z</time></trkpt>
      <trkpt lat="59.334501" lon="18.067198"><ele>42.3</ele><time>2024-06-15T10:03:05Z</time></trkpt>
      <trkpt lat="59.334524" lon="18.067071"><ele>42.3</ele><time>2024-06-15T10:03:07Z</time></trkpt>
      <trkpt lat="59.334557" lon="18.066947"><ele>42.5</ele><time>2024-06-15T10:03:10Z</time></trkpt>
      <trkpt lat="59.334587" lon="18.066817"><ele>42.6</ele><time>2024-06-15T10:03:12Z</time></trkpt>
      <trkpt lat="59.334614" lon="18.066690"><ele>42.5</ele><time>2024-06-15T10:03:14Z</time></trkpt>
      <trkpt lat="59.334640" lon="18.066561"><ele>42.6</ele><time>2024-06-15T10:03:16Z</time></trkpt>
      <trkpt lat="59.334665" lon="18.066429"><ele>42.5</ele><time>2024-06-15T10:03:19Z</time></trkpt>
      <trkpt lat="59.334693" lon="18.066301"><ele>42.6</ele><time>2024-06-15T10:03:21Z</time></trkpt>
      <trkpt lat="59.334726" lon="18.066176"><ele>42.4</ele><time>2024-06-15T10:03:23Z</time></trkpt>
      <trkpt lat="59.334753" lon="18.066047"><ele>42.4</ele><time>2024-06-15T10:03:25Z</time></trkpt>
      <trkpt lat="59.334778" lon="18.065920"><ele>42.6</ele><time>2024-06-15T10:03:28Z</time></trkpt>
      <trkpt lat="59.334808" lon="18.065792"><ele>42.6</ele><time>2024-06-15T10:03:30Z</time></trkpt>
      <trkpt lat="59.334836" lon="18.065665"><ele>42.5</ele><time>2024-06-15T10:03:32Z</time></trkpt>
      <trkpt lat="59.334865" lon="18.065533"><ele>42.5</ele><time>2024-06-15T10:03:34Z</time></trkpt>
      <trkpt lat="59.334889" lon="18.065410"><ele>42.6</ele><time>2024-06-15T10:03:37Z</time></trkpt>
      <trkpt lat="59.334923" lon="18.065277"><ele>42.7</ele><time>2024-06-15T10:03:39Z</time></trkpt>
      <trkpt lat="59.334950" lon="18.065151"><ele>42.6</ele><time>2024-06-15T10:03:41Z</time></trkpt>
      <trkpt lat="59.334978" lon="18.065022"><ele>42.8</ele><time>2024-06-15T10:03:43Z</time></trkpt>
      <trkpt lat="59.335003" lon="18.064898"><ele>42.8</ele><time>2024-06-15T10:03:46Z</time></trkpt>
      <trkpt lat="59.335036" lon="18.064764"><ele>42.6</ele><time>2024-06-15T10:03:48Z</time></trkpt>
      <trkpt lat="59.335060" lon="18.064642"><ele>42.8</ele><time>2024-06-15T10:03:50Z</time></trkpt>
      <trkpt lat="59.335089" lon="18.064510"><ele>42.7</ele><time>2024-06-15T10:03:52Z</time></trkpt>
      <trkpt lat="59.335114" lon="18.064384"><ele>42.8</ele><time>2024-06-15T10:03:55Z</time></trkpt>
      <trkpt lat="59.335144" lon="18.064256"><ele>43.0</ele><time>2024-06-15T10:03:57Z</time></trkpt>
      <trkpt lat="59.335168" lon="18.064126"><ele>43.0</ele><time>2024-06-15T10:03:59Z</time></trkpt>
      <trkpt lat="59.335201" lon="18.063997"><ele>43.0</ele><time>2024-06-15T10:04:01Z</time></trkpt>
      <trkpt lat="59.335138" lon="18.063920"><ele>42.9</ele><time>2024-06-15T10:04:04Z</time></trkpt>
      <trkpt lat="59.335081" lon="18.063843"><ele>43.0</ele><time>2024-06-15T10:04:06Z</time></trkpt>
      <trkpt lat="59.335015" lon="18.063763"><ele>43.0</ele><time>2024-06-15T10:04:08Z</time></trkpt>
      <trkpt lat="59.334957" lon="18.063687"><ele>42.9</ele><time>2024-06-15T10:04:11Z</time></trkpt>
      <trkpt lat="59.334895" lon="18.063608"><ele>42.9</ele><time>2024-06-15T10:04:13Z</time></trkpt>
      <trkpt lat="59.334838" lon="18.063526"><ele>42.9</ele><time>2024-06-15T10:04:15Z</time></trkpt>
      <trkpt lat="59.334773" lon="18.063452"><ele>43.1</ele><time>2024-06-15T10:04:18Z</time></trkpt>
      <trkpt lat="59.334710" lon="18.063373"><ele>43.0</ele><time>2024-06-15T10:04:20Z</time></trkpt>
      <trkpt lat="59.334657" lon="18.063294"><ele>42.9</ele><time>2024-06-15T10:04:22Z</time></trkpt>
      <trkpt lat="59.334595" lon="18.063216"><ele>42.7</ele><time>2024-06-15T10:04:25Z</time></trkpt>
      <trkpt lat="59.334531" lon="18.063137"><ele>42.9</ele><time>2024-06-15T10:04:27Z</time></trkpt>
      <trkpt lat="59.334472" lon="18.063058"><ele>42.9</ele><time>2024-06-15T10:04:29Z</time></trkpt>
      <trkpt lat="59.334409" lon="18.062979"><ele>43.0</ele><time>2024-06-15T10:04:32Z</time></trkpt>
      <trkpt lat="59.334352" lon="18.062900"><ele>42.9</ele><time>2024-06-15T10:04:34Z</time></trkpt>
      <trkpt lat="59.334287" lon="18.062821"><ele>42.8</ele><time>2024-06-15T10:04:36Z</time></trkpt>
      <trkpt lat="59.334225" lon="18.062746"><ele>42.7</ele><time>2024-06-15T10:04:38Z</time></trkpt>
      <trkpt lat="59.334171" lon="18.062663"><ele>42.5</ele><time>2024-06-15T10:04:41Z</time></trkpt>
      <trkpt lat="59.334103" lon="18.062589"><ele>42.5</ele><time>2024-06-15T10:04:43Z</time></trkpt>
      <trkpt lat="59.334047" lon="18.062504"><ele>42.5</ele><time>2024-06-15T10:04:45Z</time></trkpt>
      <trkpt lat="59.333988" lon="18.062426"><ele>42.7</ele><time>2024-06-15T10:04:48Z</time></trkpt>
      <trkpt lat="59.333924" lon="18.062353"><ele>42.8</ele><time>2024-06-15T10:04:50Z</time></trkpt>
      <trkpt lat="59.333868" lon="18.062271"><ele>42.6</ele><time>2024-06-15T10:04:52Z</time></trkpt>
      <trkpt lat="59.333807" lon="18.062194"><ele>42.6</ele><time>2024-06-15T10:04:55Z</time></trkpt>
      <trkpt lat="59.333740" lon="18.062111"><ele>42.6</ele><time>2024-06-15T10:04:57Z</time></trkpt>
      <trkpt lat="59.333681" lon="18.062039"><ele>42.6</ele><time>2024-06-15T10:04:59Z</time></trkpt>
      <trkpt lat="59.333619" lon="18.061959"><ele>42.6</ele><time>2024-06-15T10:05:02Z</time></trkpt>
      <trkpt lat="59.333563" lon="18.061881"><ele>42.6</ele><time>2024-06-15T10:05:04Z</time></trkpt>
      <trkpt lat="59.333500" lon="18.061800"><ele>42.6</ele><time>2024-06-15T10:05:06Z</time></trkpt>
  </trkseg></trk>
</gpx>