<?xml version="1.0" encoding="UTF-8"?>
<gpx version="1.1" creator="VectorRun-seed">
  <trk><name>Peter</name><trkseg>
      <trkpt lat="59.331198" lon="18.061499"><ele>39.9</ele><time>2024-06-15T10:00:00Z</time></trkpt>
      <trkpt lat="59.331270" lon="18.061442"><ele>39.9</ele><time>2024-06-15T10:00:02Z</time></trkpt>
      <trkpt lat="59.331333" lon="18.061387"><ele>40.0</ele><time>2024-06-15T10:00:05Z</time></trkpt>
      <trkpt lat="59.331398" lon="18.061333"><ele>39.9</ele><time>2024-06-15T10:00:07Z</time></trkpt>
      <trkpt lat="59.331467" lon="18.061275"><ele>40.0</ele><time>2024-06-15T10:00:10Z</time></trkpt>
      <trkpt lat="59.331529" lon="18.061226"><ele>40.2</ele><time>2024-06-15T10:00:12Z</time></trkpt>
      <trkpt lat="59.331595" lon="18.061170"><ele>40.3</ele><time>2024-06-15T10:00:15Z</time></trkpt>
      <trkpt lat="59.331664" lon="18.061110"><ele>40.2</ele><time>2024-06-15T10:00:17Z</time></trkpt>
      <trkpt lat="59.331733" lon="18.061051"><ele>40.2</ele><time>2024-06-15T10:00:20Z</time></trkpt>
      <trkpt lat="59.331804" lon="18.060996"><ele>40.3</ele><time>2024-06-15T10:00:22Z</time></trkpt>
      <trkpt lat="59.331859" lon="18.061075"><ele>40.3</ele><time>2024-06-15T10:00:25Z</time></trkpt>
      <trkpt lat="59.331917" lon="18.061150"><ele>40.5</ele><time>2024-06-15T10:00:27Z</time></trkpt>
      <trkpt lat="59.331980" lon="18.061222"><ele>40.6</ele><time>2024-06-15T10:00:30Z</time></trkpt>
      <trkpt lat="59.332040" lon="18.061302"><ele>40.7</ele><time>2024-06-15T10:00:32Z</time></trkpt>
      <trkpt lat="59.332103" lon="18.061379"><ele>40.6</ele><time>2024-06-15T10:00:35Z</time></trkpt>
      <trkpt lat="59.332156" lon="18.061446"><ele>40.5</ele><time>2024-06-15T10:00:37Z</time></trkpt>
      <trkpt lat="59.332220" lon="18.061524"><ele>40.5</ele><time>2024-06-15T10:00:40Z</time></trkpt>
      <trkpt lat="59.332285" lon="18.061602"><ele>40.5</ele><time>2024-06-15T10:00:42Z</time></trkpt>
      <trkpt lat="59.332337" lon="18.061673"><ele>40.4</ele><time>2024-06-15T10:00:44Z</time></trkpt>
      <trkpt lat="59.332404" lon="18.061746"><ele>40.4</ele><time>2024-06-15T10:00:47Z</time></trkpt>
      <trkpt lat="59.332459" lon="18.061826"><ele>40.2</ele><time>2024-06-15T10:00:49Z</time></trkpt>
      <trkpt lat="59.332516" lon="18.061897"><ele>40.4</ele><time>2024-06-15T10:00:52Z</time></trkpt>
      <trkpt lat="59.332575" lon="18.061976"><ele>40.3</ele><time>2024-06-15T10:00:54Z</time></trkpt>
      <trkpt lat="59.332643" lon="18.062052"><ele>40.2</ele><time>2024-06-15T10:00:57Z</time></trkpt>
      <trkpt lat="59.332695" lon="18.062124"><ele>40.2</ele><time>2024-06-15T10:00:59Z</time></trkpt>
      <trkpt lat="59.332764" lon="18.062202"><ele>40.1</ele><time>2024-06-15T10:01:02Z</time></trkpt>
      <trkpt lat="59.332818" lon="18.062278"><ele>40.1</ele><time>2024-06-15T10:01:04Z</time></trkpt>
      <trkpt lat="59.332883" lon="18.062353"><ele>40.0</ele><time>2024-06-15T10:01:07Z</time></trkpt>
      <trkpt lat="59.332939" lon="18.062430"><ele>40.2</ele><time>2024-06-15T10:01:09Z</time></trkpt>
      <trkpt lat="59.332996" lon="18.062502"><ele>40.2</ele><time>2024-06-15T10:01:12Z</time></trkpt>
      <trkpt lat="59.332991" lon="18.062636"><ele>40.4</ele><time>2024-06-15T10:01:14Z</time></trkpt>
      <trkpt lat="59.332978" lon="18.062774"><ele>40.5</ele><time>2024-06-15T10:01:17Z</time></trkpt>
      <trkpt lat="59.332964" lon="18.062904"><ele>40.6</ele><time>2024-06-15T10:01:19Z</time></trkpt>
      <trkpt lat="59.332956" lon="18.063041"><ele>40.8</ele><time>2024-06-15T10:01:21Z</time></trkpt>
      <trkpt lat="59.332939" lon="18.063178"><ele>40.7</ele><time>2024-06-15T10:01:24Z</time></trkpt>
      <trkpt lat="59.332928" lon="18.063314"><ele>40.8</ele><time>2024-06-15T10:01:26Z</time></trkpt>
      <trkpt lat="59.332920" lon="18.063445"><ele>40.9</ele><time>2024-06-15T10:01:29Z</time></trkpt>
      <trkpt lat="59.332911" lon="18.063581"><ele>41.0</ele><time>2024-06-15T10:01:31Z</time></trkpt>
      <trkpt lat="59.332892" lon="18.063713"><ele>41.1</ele><time>2024-06-15T10:01:34Z</time></trkpt>
      <trkpt lat="59.332885" lon="18.063857"><ele>40.9</ele><time>2024-06-15T10:01:36Z</time></trkpt>
      <trkpt lat="59.332870" lon="18.063984"><ele>41.0</ele><time>2024-06-15T10:01:38Z</time></trkpt>
      <trkpt lat="59.332857" lon="18.064123"><ele>41.0</ele><time>2024-06-15T10:01:41Z</time></trkpt>
      <trkpt lat="59.332844" lon="18.064256"><ele>41.2</ele><time>2024-06-15T10:01:43Z</time></trkpt>
      <trkpt lat="59.332838" lon="18.064396"><ele>41.0</ele><time>2024-06-15T10:01:46Z</time></trkpt>
      <trkpt lat="59.332822" lon="18.064531"><ele>40.9</ele><time>2024-06-15T10:01:48Z</time></trkpt>
      <trkpt lat="59.332816" lon="18.064667"><ele>40.9</ele><time>2024-06-15T10:01:51Z</time></trkpt>
      <trkpt lat="59.332801" lon="18.064802"><ele>40.9</ele><time>2024-06-15T10:01:53Z</time></trkpt>
      <trkpt lat="59.332840" lon="18.064911"><ele>40.9</ele><time>2024-06-15T10:01:56Z</time></trkpt>
      <trkpt lat="59.332891" lon="18.065011"><ele>41.0</ele><time>2024-06-15T10:01:58Z</time></trkpt>
      <trkpt lat="59.332926" lon="18.065121"><ele>41.1</ele><time>2024-06-15T10:02:00Z</time></trkpt>
      <trkpt lat="59.332972" lon="18.065227"><ele>41.2</ele><time>2024-06-15T10:02:03Z</time></trkpt>
      <trkpt lat="59.333016" lon="18.065330"><ele>41.1</ele><time>2024-06-15T10:02:05Z</time></trkpt>
      <trkpt lat="59.333059" lon="18.065442"><ele>41.2</ele><time>2024-06-15T10:02:08Z</time></trkpt>
      <trkpt lat="59.333105" lon="18.065542"><ele>41.3</ele><time>2024-06-15T10:02:10Z</time></trkpt>
      <trkpt lat="59.333146" lon="18.065649"><ele>41.2</ele><time>2024-06-15T10:02:12Z</time></trkpt>
      <trkpt lat="59.333193" lon="18.065757"><ele>41.1</ele><time>2024-06-15T10:02:15Z</time></trkpt>
      <trkpt lat="59.333240" lon="18.065865"><ele>40.9</ele><time>2024-06-15T10:02:17Z</time></trkpt>
      <trkpt lat="59.333283" lon="18.065967"><ele>40.8</ele><time>2024-06-15T10:02:20Z</time></trkpt>
      <trkpt lat="59.333320" lon="18.066078"><ele>41.0</ele><time>2024-06-15T10:02:22Z</time></trkpt>
      <trkpt lat="59.333373" lon="18.066186"><ele>41.1</ele><time>2024-06-15T10:02:25Z</time></trkpt>
      <trkpt lat="59.333412" lon="18.066286"><ele>41.1</ele><time>2024-06-15T10:02:27Z</time></trkpt>
      <trkpt lat="59.333454" lon="18.066392"><ele>41.1</ele><time>2024-06-15T10:02:29Z</time></trkpt>
      <trkpt lat="59.333497" lon="18.066505"><ele>41.1</ele><time>2024-06-15T10:02:32Z</time></trkpt>
      <trkpt lat="59.333562" lon="18.066542"><ele>41.0</ele><time>2024-06-15T10:02:34Z</time></trkpt>
      <trkpt lat="59.333632" lon="18.066595"><ele>41.0</ele><time>2024-06-15T10:02:37Z</time></trkpt>
      <trkpt lat="59.333697" lon="18.066635"><ele>40.9</ele><time>2024-06-15T10:02:39Z</time></trkpt>
      <trkpt lat="59.333767" lon="18.066686"><ele>41.1</ele><time>2024-06-15T10:02:42Z</time></trkpt>
      <trkpt lat="59.333829" lon="18.066730"><ele>41.0</ele><time>2024-06-15T10:02:44Z</time></trkpt>
      <trkpt lat="59.333903" lon="18.066776"><ele>41.1</ele><time>2024-06-15T10:02:47Z</time></trkpt>
      <trkpt lat="59.333963" lon="18.066828"><ele>41.3</ele><time>2024-06-15T10:02:49Z</time></trkpt>
      <trkpt lat="59.334030" lon="18.066878"><ele>41.2</ele><time>2024-06-15T10:02:52Z</time></trkpt>
      <trkpt lat="59.334100" lon="18.066923"><ele>41.2</ele><time>2024-06-15T10:02:54Z</time></trkpt>
      <trkpt lat="59.334171" lon="18.066967"><ele>41.4</ele><time>2024-06-15T10:02:56Z</time></trkpt>
      <trkpt lat="59.334235" lon="18.067017"><ele>41.5</ele><time>2024-06-15T10:02:59Z</time></trkpt>
      <trkpt lat="59.334296" lon="18.067058"><ele>41.6</ele><time>2024-06-15T10:03:01Z</time></trkpt>
      <trkpt lat="59.334364" lon="18.067106"><ele>41.7</ele><time>2024-06-15T10:03:04Z</time></trkpt>
      <trkpt lat="59.334430" lon="18.067155"><ele>41.8</ele><time>2024-06-15T10:03:06Z</time></trkpt>
      <trkpt lat="59.334498" lon="18.067203"><ele>42.0</ele><time>2024-06-15T10:03:09Z</time></trkpt>
      <trkpt lat="59.334539" lon="18.067082"><ele>42.1</ele><time>2024-06-15T10:03:11Z</time></trkpt>
      <trkpt lat="59.334570" lon="18.066953"><ele>42.0</ele><time>2024-06-15T10:03:14Z</time></trkpt>
      <trkpt lat="59.334608" lon="18.066835"><ele>41.9</ele><time>2024-06-15T10:03:16Z</time></trkpt>
      <trkpt lat="59.334647" lon="18.066719"><ele>41.7</ele><time>2024-06-15T10:03:19Z</time></trkpt>
      <trkpt lat="59.334683" lon="18.066590"><ele>41.7</ele><time>2024-06-15T10:03:21Z</time></trkpt>
      <trkpt lat="59.334712" lon="18.066467"><ele>41.7</ele><time>2024-06-15T10:03:24Z</time></trkpt>
      <trkpt lat="59.334750" lon="18.066347"><ele>41.7</ele><time>2024-06-15T10:03:26Z</time></trkpt>
      <trkpt lat="59.334785" lon="18.066225"><ele>41.7</ele><time>2024-06-15T10:03:29Z</time></trkpt>
      <trkpt lat="59.334821" lon="18.066106"><ele>41.6</ele><time>2024-06-15T10:03:31Z</time></trkpt>
      <trkpt lat="59.334860" lon="18.065988"><ele>41.6</ele><time>2024-06-15T10:03:34Z</time></trkpt>
      <trkpt lat="59.334890" lon="18.065861"><ele>41.5</ele><time>2024-06-15T10:03:36Z</time></trkpt>
      <trkpt lat="59.334929" lon="18.065740"><ele>41.5</ele><time>2024-06-15T10:03:39Z</time></trkpt>
      <trkpt lat="59.334969" lon="18.065620"><ele>41.6</ele><time>2024-06-15T10:03:41Z</time></trkpt>
      <trkpt lat="59.334995" lon="18.065499"><ele>41.4</ele><time>2024-06-15T10:03:44Z</time></trkpt>
      <trkpt lat="59.335014" lon="18.065363"><ele>41.5</ele><time>2024-06-15T10:03:46Z</time></trkpt>
      <trkpt lat="59.335040" lon="18.065230"><ele>41.7</ele><time>2024-06-15T10:03:49Z</time></trkpt>
      <trkpt lat="59.335057" lon="18.065095"><ele>41.6</ele><time>2024-06-15T10:03:51Z</time></trkpt>
      <trkpt lat="59.335072" lon="18.064955"><ele>41.5</ele><time>2024-06-15T10:03:54Z</time></trkpt>
      <trkpt lat="59.335095" lon="18.064821"><ele>41.4</ele><time>2024-06-15T10:03:56Z</time></trkpt>
      <trkpt lat="59.335105" lon="18.064681"><ele>41.4</ele><time>2024-06-15T10:03:59Z</time></trkpt>
      <trkpt lat="59.335131" lon="18.064544"><ele>41.3</ele><time>2024-06-15T10:04:01Z</time></trkpt>
      <trkpt lat="59.335150" lon="18.064405"><ele>41.5</ele><time>2024-06-15T10:04:04Z</time></trkpt>
      <trkpt lat="59.335164" lon="18.064269"><ele>41.4</ele><time>2024-06-15T10:04:06Z</time></trkpt>
      <trkpt lat="59.335179" lon="18.064135"><ele>41.3</ele><time>2024-06-15T10:04:09Z</time></trkpt>
      <trkpt lat="59.335196" lon="18.064001"><ele>41.2</ele><time>2024-06-15T10:04:11Z</time></trkpt>
      <trkpt lat="59.335144" lon="18.063926"><ele>41.1</ele><time>2024-06-15T10:04:14Z</time></trkpt>
      <trkpt lat="59.335077" lon="18.063841"><ele>41.3</ele><time>2024-06-15T10:04:16Z</time></trkpt>
      <trkpt lat="59.335019" lon="18.063769"><ele>41.2</ele><time>2024-06-15T10:04:19Z</time></trkpt>
      <trkpt lat="59.334962" lon="18.063689"><ele>41.1</ele><time>2024-06-15T10:04:21Z</time></trkpt>
      <trkpt lat="59.334898" lon="18.063606"><ele>41.0</ele><time>2024-06-15T10:04:24Z</time></trkpt>
      <trkpt lat="59.334834" lon="18.063526"><ele>40.8</ele><time>2024-06-15T10:04:26Z</time></trkpt>
      <trkpt lat="59.334778" lon="18.063447"><ele>40.8</ele><time>2024-06-15T10:04:29Z</time></trkpt>
      <trkpt lat="59.334714" lon="18.063367"><ele>40.8</ele><time>2024-06-15T10:04:31Z</time></trkpt>
      <trkpt lat="59.334655" lon="18.063289"><ele>40.8</ele><time>2024-06-15T10:04:34Z</time></trkpt>
      <trkpt lat="59.334589" lon="18.063215"><ele>41.0</ele><time>2024-06-15T10:04:36Z</time></trkpt>
      <trkpt lat="59.334536" lon="18.063139"><ele>41.1</ele><time>2024-06-15T10:04:39Z</time></trkpt>
      <trkpt lat="59.334476" lon="18.063062"><ele>41.1</ele><time>2024-06-15T10:04:41Z</time></trkpt>
      <trkpt lat="59.334414" lon="18.062980"><ele>41.2</ele><time>2024-06-15T10:04:44Z</time></trkpt>
      <trkpt lat="59.334347" lon="18.062905"><ele>41.0</ele><time>2024-06-15T10:04:47Z</time></trkpt>
      <trkpt lat="59.334291" lon="18.062819"><ele>41.0</ele><time>2024-06-15T10:04:49Z</time></trkpt>
      <trkpt lat="59.334226" lon="18.062741"><ele>41.1</ele><time>2024-06-15T10:04:52Z</time></trkpt>
      <trkpt lat="59.334168" lon="18.062663"><ele>41.3</ele><time>2024-06-15T10:04:54Z</time></trkpt>
      <trkpt lat="59.334107" lon="18.062584"><ele>41.4</ele><time>2024-06-15T10:04:57Z</time></trkpt>
      <trkpt lat="59.334045" lon="18.062504"><ele>41.5</ele><time>2024-06-15T10:04:59Z</time></trkpt>
      <trkpt lat="59.333989" lon="18.062428"><ele>41.6</ele><time>2024-06-15T10:05:02Z</time></trkpt>
      <trkpt lat="59.333924" lon="18.062353"><ele>41.6</ele><time>2024-06-15T10:05:04Z</time></trkpt>
      <trkpt lat="59.333862" lon="18.062276"><ele>41.7</ele><time>2024-06-15T10:05:07Z</time></trkpt>
      <trkpt lat="59.333803" lon="18.062191"><ele>41.6</ele><time>2024-06-15T10:05:09Z</time></trkpt>
      <trkpt lat="59.333742" lon="18.062117"><ele>41.7</ele><time>2024-06-15T10:05:12Z</time></trkpt>
      <trkpt lat="59.333681" lon="18.062035"><ele>41.7</ele><time>2024-06-15T10:05:14Z</time></trkpt>
      <trkpt lat="59.333622" lon="18.061961"><ele>41.8</ele><time>2024-06-15T10:05:17Z</time></trkpt>
      <trkpt lat="59.333565" lon="18.061882"><ele>41.8</ele><time>2024-06-15T10:05:19Z</time></trkpt>
      <trkpt lat="59.333500" lon="18.061800"><ele>41.8</ele><time>2024-06-15T10:05:22Z</time></trkpt>
  </trkseg></trk>
</gpx>