<?xml version="1.0" encoding="UTF-8"?>
<gpx version="1.1" creator="VectorRun-seed">
  <trk><name>Tom</name><trkseg>
      <trkpt lat="59.331196" lon="18.061501"><ele>40.0</ele><time>2024-06-15T10:01:30Z</time></trkpt>
      <trkpt lat="59.331222" lon="18.061630"><ele>40.0</ele><time>2024-06-15T10:01:32Z</time></trkpt>
      <trkpt lat="59.331244" lon="18.061764"><ele>40.1</ele><time>2024-06-15T10:01:35Z</time></trkpt>
      <trkpt lat="59.331262" lon="18.061900"><ele>40.2</ele><time>2024-06-15T10:01:37Z</time></trkpt>
      <trkpt lat="59.331284" lon="18.062034"><ele>40.0</ele><time>2024-06-15T10:01:40Z</time></trkpt>
      <trkpt lat="59.331298" lon="18.062170"><ele>40.0</ele><time>2024-06-15T10:01:43Z</time></trkpt>
      <trkpt lat="59.331323" lon="18.062299"><ele>40.2</ele><time>2024-06-15T10:01:45Z</time></trkpt>
      <trkpt lat="59.331339" lon="18.062434"><ele>40.2</ele><time>2024-06-15T10:01:48Z</time></trkpt>
      <trkpt lat="59.331359" lon="18.062563"><ele>40.2</ele><time>2024-06-15T10:01:51Z</time></trkpt>
      <trkpt lat="59.331381" lon="18.062697"><ele>40.2</ele><time>2024-06-15T10:01:53Z</time></trkpt>
      <trkpt lat="59.331402" lon="18.062834"><ele>40.4</ele><time>2024-06-15T10:01:56Z</time></trkpt>
      <trkpt lat="59.331422" lon="18.062963"><ele>40.6</ele><time>2024-06-15T10:01:58Z</time></trkpt>
      <trkpt lat="59.331444" lon="18.063105"><ele>40.6</ele><time>2024-06-15T10:02:01Z</time></trkpt>
      <trkpt lat="59.331462" lon="18.063229"><ele>40.6</ele><time>2024-06-15T10:02:04Z</time></trkpt>
      <trkpt lat="59.331486" lon="18.063369"><ele>40.6</ele><time>2024-06-15T10:02:06Z</time></trkpt>
      <trkpt lat="59.331495" lon="18.063502"><ele>40.5</ele><time>2024-06-15T10:02:09Z</time></trkpt>
      <trkpt lat="59.331545" lon="18.063601"><ele>40.7</ele><time>2024-06-15T10:02:12Z</time></trkpt>
      <trkpt lat="59.331601" lon="18.063706"><ele>40.7</ele><time>2024-06-15T10:02:14Z</time></trkpt>
      <trkpt lat="59.331647" lon="18.063803"><ele>40.9</ele><time>2024-06-15T10:02:17Z</time></trkpt>
      <trkpt lat="59.331702" lon="18.063897"><ele>40.8</ele><time>2024-06-15T10:02:20Z</time></trkpt>
      <trkpt lat="59.331746" lon="18.064003"><ele>40.7</ele><time>2024-06-15T10:02:22Z</time></trkpt>
      <trkpt lat="59.331802" lon="18.064100"><ele>40.6</ele><time>2024-06-15T10:02:25Z</time></trkpt>
      <trkpt lat="59.331852" lon="18.064204"><ele>40.7</ele><time>2024-06-15T10:02:28Z</time></trkpt>
      <trkpt lat="59.331906" lon="18.064301"><ele>40.6</ele><time>2024-06-15T10:02:30Z</time></trkpt>
      <trkpt lat="59.331945" lon="18.064399"><ele>40.7</ele><time>2024-06-15T10:02:33Z</time></trkpt>
      <trkpt lat="59.332002" lon="18.064502"><ele>40.8</ele><time>2024-06-15T10:02:35Z</time></trkpt>
      <trkpt lat="59.332055" lon="18.064594"><ele>40.9</ele><time>2024-06-15T10:02:38Z</time></trkpt>
      <trkpt lat="59.332099" lon="18.064699"><ele>41.0</ele><time>2024-06-15T10:02:41Z</time></trkpt>
      <trkpt lat="59.332144" lon="18.064795"><ele>41.0</ele><time>2024-06-15T10:02:43Z</time></trkpt>
      <trkpt lat="59.332197" lon="18.064898"><ele>41.2</ele><time>2024-06-15T10:02:46Z</time></trkpt>
      <trkpt lat="59.332248" lon="18.065005"><ele>41.2</ele><time>2024-06-15T10:02:49Z</time></trkpt>
      <trkpt lat="59.332297" lon="18.065101"><ele>41.1</ele><time>2024-06-15T10:02:51Z</time></trkpt>
      <trkpt lat="59.332346" lon="18.065206"><ele>41.2</ele><time>2024-06-15T10:02:54Z</time></trkpt>
      <trkpt lat="59.332399" lon="18.065297"><ele>41.1</ele><time>2024-06-15T10:02:57Z</time></trkpt>
      <trkpt lat="59.332455" lon="18.065400"><ele>41.0</ele><time>2024-06-15T10:02:59Z</time></trkpt>
      <trkpt lat="59.332500" lon="18.065501"><ele>41.0</ele><time>2024-06-15T10:03:02Z</time></trkpt>
      <trkpt lat="59.332537" lon="18.065409"><ele>41.0</ele><time>2024-06-15T10:03:04Z</time></trkpt>
      <trkpt lat="59.332580" lon="18.065327"><ele>40.9</ele><time>2024-06-15T10:03:06Z</time></trkpt>
      <trkpt lat="59.332610" lon="18.065232"><ele>41.1</ele><time>2024-06-15T10:03:08Z</time></trkpt>
      <trkpt lat="59.332650" lon="18.065153"><ele>41.2</ele><time>2024-06-15T10:03:11Z</time></trkpt>
      <trkpt lat="59.332682" lon="18.065059"><ele>41.1</ele><time>2024-06-15T10:03:13Z</time></trkpt>
      <trkpt lat="59.332726" lon="18.064980"><ele>41.1</ele><time>2024-06-15T10:03:15Z</time></trkpt>
      <trkpt lat="59.332761" lon="18.064893"><ele>41.3</ele><time>2024-06-15T10:03:17Z</time></trkpt>
      <trkpt lat="59.332800" lon="18.064801"><ele>41.5</ele><time>2024-06-15T10:03:19Z</time></trkpt>
      <trkpt lat="59.332837" lon="18.064923"><ele>41.5</ele><time>2024-06-15T10:03:22Z</time></trkpt>
      <trkpt lat="59.332874" lon="18.065037"><ele>41.5</ele><time>2024-06-15T10:03:25Z</time></trkpt>
      <trkpt lat="59.332907" lon="18.065155"><ele>41.6</ele><time>2024-06-15T10:03:27Z</time></trkpt>
      <trkpt lat="59.332950" lon="18.065278"><ele>41.7</ele><time>2024-06-15T10:03:30Z</time></trkpt>
      <trkpt lat="59.332988" lon="18.065396"><ele>41.8</ele><time>2024-06-15T10:03:32Z</time></trkpt>
      <trkpt lat="59.333020" lon="18.065510"><ele>41.7</ele><time>2024-06-15T10:03:35Z</time></trkpt>
      <trkpt lat="59.333063" lon="18.065634"><ele>41.6</ele><time>2024-06-15T10:03:38Z</time></trkpt>
      <trkpt lat="59.333097" lon="18.065750"><ele>41.5</ele><time>2024-06-15T10:03:40Z</time></trkpt>
      <trkpt lat="59.333133" lon="18.065865"><ele>41.4</ele><time>2024-06-15T10:03:43Z</time></trkpt>
      <trkpt lat="59.333176" lon="18.065980"><ele>41.4</ele><time>2024-06-15T10:03:46Z</time></trkpt>
      <trkpt lat="59.333212" lon="18.066105"><ele>41.7</ele><time>2024-06-15T10:03:48Z</time></trkpt>
      <trkpt lat="59.333246" lon="18.066228"><ele>41.5</ele><time>2024-06-15T10:03:51Z</time></trkpt>
      <trkpt lat="59.333287" lon="18.066339"><ele>41.6</ele><time>2024-06-15T10:03:53Z</time></trkpt>
      <trkpt lat="59.333315" lon="18.066458"><ele>41.5</ele><time>2024-06-15T10:03:56Z</time></trkpt>
      <trkpt lat="59.333359" lon="18.066582"><ele>41.7</ele><time>2024-06-15T10:03:59Z</time></trkpt>
      <trkpt lat="59.333388" lon="18.066698"><ele>41.6</ele><time>2024-06-15T10:04:01Z</time></trkpt>
      <trkpt lat="59.333435" lon="18.066814"><ele>41.6</ele><time>2024-06-15T10:04:04Z</time></trkpt>
      <trkpt lat="59.333469" lon="18.066930"><ele>41.4</ele><time>2024-06-15T10:04:07Z</time></trkpt>
      <trkpt lat="59.333499" lon="18.067050"><ele>41.4</ele><time>2024-06-15T10:04:09Z</time></trkpt>
      <trkpt lat="59.333546" lon="18.067166"><ele>41.6</ele><time>2024-06-15T10:04:12Z</time></trkpt>
      <trkpt lat="59.333583" lon="18.067284"><ele>41.7</ele><time>2024-06-15T10:04:15Z</time></trkpt>
      <trkpt lat="59.333611" lon="18.067408"><ele>41.8</ele><time>2024-06-15T10:04:17Z</time></trkpt>
      <trkpt lat="59.333658" lon="18.067523"><ele>41.8</ele><time>2024-06-15T10:04:20Z</time></trkpt>
      <trkpt lat="59.333694" lon="18.067648"><ele>41.8</ele><time>2024-06-15T10:04:22Z</time></trkpt>
      <trkpt lat="59.333724" lon="18.067767"><ele>41.8</ele><time>2024-06-15T10:04:25Z</time></trkpt>
      <trkpt lat="59.333761" lon="18.067886"><ele>42.0</ele><time>2024-06-15T10:04:28Z</time></trkpt>
      <trkpt lat="59.333802" lon="18.067999"><ele>42.0</ele><time>2024-06-15T10:04:30Z</time></trkpt>
      <trkpt lat="59.333860" lon="18.067924"><ele>41.9</ele><time>2024-06-15T10:04:33Z</time></trkpt>
      <trkpt lat="59.333932" lon="18.067858"><ele>41.8</ele><time>2024-06-15T10:04:36Z</time></trkpt>
      <trkpt lat="59.333994" lon="18.067780"><ele>41.7</ele><time>2024-06-15T10:04:38Z</time></trkpt>
      <trkpt lat="59.334055" lon="18.067708"><ele>41.9</ele><time>2024-06-15T10:04:41Z</time></trkpt>
      <trkpt lat="59.334119" lon="18.067640"><ele>42.0</ele><time>2024-06-15T10:04:44Z</time></trkpt>
      <trkpt lat="59.334184" lon="18.067559"><ele>41.9</ele><time>2024-06-15T10:04:47Z</time></trkpt>
      <trkpt lat="59.334251" lon="18.067495"><ele>41.8</ele><time>2024-06-15T10:04:49Z</time></trkpt>
      <trkpt lat="59.334307" lon="18.067424"><ele>41.7</ele><time>2024-06-15T10:04:52Z</time></trkpt>
      <trkpt lat="59.334378" lon="18.067349"><ele>41.8</ele><time>2024-06-15T10:04:55Z</time></trkpt>
      <trkpt lat="59.334432" lon="18.067270"><ele>41.9</ele><time>2024-06-15T10:04:58Z</time></trkpt>
      <trkpt lat="59.334505" lon="18.067197"><ele>42.1</ele><time>2024-06-15T10:05:00Z</time></trkpt>
      <trkpt lat="59.334560" lon="18.067129"><ele>42.0</ele><time>2024-06-15T10:05:03Z</time></trkpt>
      <trkpt lat="59.334625" lon="18.067055"><ele>41.9</ele><time>2024-06-15T10:05:06Z</time></trkpt>
      <trkpt lat="59.334682" lon="18.066970"><ele>41.8</ele><time>2024-06-15T10:05:09Z</time></trkpt>
      <trkpt lat="59.334750" lon="18.066905"><ele>41.9</ele><time>2024-06-15T10:05:11Z</time></trkpt>
      <trkpt lat="59.334811" lon="18.066821"><ele>42.1</ele><time>2024-06-15T10:05:14Z</time></trkpt>
      <trkpt lat="59.334873" lon="18.066753"><ele>42.0</ele><time>2024-06-15T10:05:17Z</time></trkpt>
      <trkpt lat="59.334932" lon="18.066678"><ele>42.0</ele><time>2024-06-15T10:05:19Z</time></trkpt>
      <trkpt lat="59.335003" lon="18.066602"><ele>41.9</ele><time>2024-06-15T10:05:22Z</time></trkpt>
      <trkpt lat="59.335058" lon="18.066530"><ele>42.1</ele><time>2024-06-15T10:05:25Z</time></trkpt>
      <trkpt lat="59.335128" lon="18.066445"><ele>42.2</ele><time>2024-06-15T10:05:28Z</time></trkpt>
      <trkpt lat="59.335192" lon="18.066377"><ele>42.4</ele><time>2024-06-15T10:05:30Z</time></trkpt>
      <trkpt lat="59.335250" lon="18.066302"><ele>42.6</ele><time>2024-06-15T10:05:33Z</time></trkpt>
      <trkpt lat="59.335318" lon="18.066225"><ele>42.8</ele><time>2024-06-15T10:05:36Z</time></trkpt>
      <trkpt lat="59.335371" lon="18.066153"><ele>42.8</ele><time>2024-06-15T10:05:38Z</time></trkpt>
      <trkpt lat="59.335439" lon="18.066071"><ele>42.8</ele><time>2024-06-15T10:05:41Z</time></trkpt>
      <trkpt lat="59.335498" lon="18.066000"><ele>43.0</ele><time>2024-06-15T10:05:44Z</time></trkpt>
      <trkpt lat="59.335475" lon="18.065864"><ele>43.0</ele><time>2024-06-15T10:05:46Z</time></trkpt>
      <trkpt lat="59.335456" lon="18.065734"><ele>42.9</ele><time>2024-06-15T10:05:49Z</time></trkpt>
      <trkpt lat="59.335441" lon="18.065602"><ele>42.8</ele><time>2024-06-15T10:05:52Z</time></trkpt>
      <trkpt lat="59.335415" lon="18.065461"><ele>42.9</ele><time>2024-06-15T10:05:54Z</time></trkpt>
      <trkpt lat="59.335400" lon="18.065336"><ele>42.7</ele><time>2024-06-15T10:05:57Z</time></trkpt>
      <trkpt lat="59.335375" lon="18.065198"><ele>42.8</ele><time>2024-06-15T10:06:00Z</time></trkpt>
      <trkpt lat="59.335364" lon="18.065063"><ele>42.9</ele><time>2024-06-15T10:06:02Z</time></trkpt>
      <trkpt lat="59.335335" lon="18.064934"><ele>43.1</ele><time>2024-06-15T10:06:05Z</time></trkpt>
      <trkpt lat="59.335322" lon="18.064804"><ele>43.2</ele><time>2024-06-15T10:06:08Z</time></trkpt>
      <trkpt lat="59.335297" lon="18.064661"><ele>43.1</ele><time>2024-06-15T10:06:10Z</time></trkpt>
      <trkpt lat="59.335284" lon="18.064534"><ele>43.0</ele><time>2024-06-15T10:06:13Z</time></trkpt>
      <trkpt lat="59.335260" lon="18.064397"><ele>42.8</ele><time>2024-06-15T10:06:15Z</time></trkpt>
      <trkpt lat="59.335243" lon="18.064265"><ele>42.7</ele><time>2024-06-15T10:06:18Z</time></trkpt>
      <trkpt lat="59.335222" lon="18.064137"><ele>42.6</ele><time>2024-06-15T10:06:21Z</time></trkpt>
      <trkpt lat="59.335199" lon="18.063995"><ele>42.4</ele><time>2024-06-15T10:06:23Z</time></trkpt>
      <trkpt lat="59.335146" lon="18.063915"><ele>42.6</ele><time>2024-06-15T10:06:26Z</time></trkpt>
      <trkpt lat="59.335086" lon="18.063839"><ele>42.4</ele><time>2024-06-15T10:06:29Z</time></trkpt>
      <trkpt lat="59.335029" lon="18.063753"><ele>42.4</ele><time>2024-06-15T10:06:31Z</time></trkpt>
      <trkpt lat="59.334983" lon="18.063671"><ele>42.3</ele><time>2024-06-15T10:06:34Z</time></trkpt>
      <trkpt lat="59.334920" lon="18.063582"><ele>42.3</ele><time>2024-06-15T10:06:36Z</time></trkpt>
      <trkpt lat="59.334868" lon="18.063504"><ele>42.5</ele><time>2024-06-15T10:06:39Z</time></trkpt>
      <trkpt lat="59.334808" lon="18.063422"><ele>42.6</ele><time>2024-06-15T10:06:41Z</time></trkpt>
      <trkpt lat="59.334753" lon="18.063330"><ele>42.5</ele><time>2024-06-15T10:06:44Z</time></trkpt>
      <trkpt lat="59.334698" lon="18.063248"><ele>42.4</ele><time>2024-06-15T10:06:47Z</time></trkpt>
      <trkpt lat="59.334641" lon="18.063172"><ele>42.2</ele><time>2024-06-15T10:06:49Z</time></trkpt>
      <trkpt lat="59.334591" lon="18.063087"><ele>42.1</ele><time>2024-06-15T10:06:52Z</time></trkpt>
      <trkpt lat="59.334539" lon="18.062999"><ele>42.1</ele><time>2024-06-15T10:06:54Z</time></trkpt>
      <trkpt lat="59.334481" lon="18.062912"><ele>42.1</ele><time>2024-06-15T10:06:57Z</time></trkpt>
      <trkpt lat="59.334423" lon="18.062835"><ele>42.0</ele><time>2024-06-15T10:07:00Z</time></trkpt>
      <trkpt lat="59.334372" lon="18.062754"><ele>42.1</ele><time>2024-06-15T10:07:02Z</time></trkpt>
      <trkpt lat="59.334310" lon="18.062671"><ele>42.1</ele><time>2024-06-15T10:07:05Z</time></trkpt>
      <trkpt lat="59.334253" lon="18.062587"><ele>42.1</ele><time>2024-06-15T10:07:07Z</time></trkpt>
      <trkpt lat="59.334201" lon="18.062498"><ele>42.0</ele><time>2024-06-15T10:07:10Z</time></trkpt>
      <trkpt lat="59.334138" lon="18.062442"><ele>42.1</ele><time>2024-06-15T10:07:13Z</time></trkpt>
      <trkpt lat="59.334067" lon="18.062367"><ele>42.2</ele><time>2024-06-15T10:07:15Z</time></trkpt>
      <trkpt lat="59.334009" lon="18.062314"><ele>42.3</ele><time>2024-06-15T10:07:18Z</time></trkpt>
      <trkpt lat="59.333947" lon="18.062242"><ele>42.5</ele><time>2024-06-15T10:07:21Z</time></trkpt>
      <trkpt lat="59.333882" lon="18.062179"><ele>42.5</ele><time>2024-06-15T10:07:23Z</time></trkpt>
      <trkpt lat="59.333822" lon="18.062116"><ele>42.5</ele><time>2024-06-15T10:07:26Z</time></trkpt>
      <trkpt lat="59.333755" lon="18.062056"><ele>42.4</ele><time>2024-06-15T10:07:29Z</time></trkpt>
      <trkpt lat="59.333693" lon="18.061993"><ele>42.5</ele><time>2024-06-15T10:07:31Z</time></trkpt>
      <trkpt lat="59.333625" lon="18.061926"><ele>42.4</ele><time>2024-06-15T10:07:34Z</time></trkpt>
      <trkpt lat="59.333561" lon="18.061863"><ele>42.6</ele><time>2024-06-15T10:07:37Z</time></trkpt>
      <trkpt lat="59.333500" lon="18.061800"><ele>42.6</ele><time>2024-06-15T10:07:39Z</time></trkpt>
  </trkseg></trk>
</gpx>